NORAD_CAT_ID,OBJECT_NAME,OBJECT_TYPE,EPOCH,MEAN_MOTION,ECCENTRICITY,INCLINATION,RA_OF_ASC_NODE,ARG_OF_PERICENTER,MEAN_ANOMALY,BSTAR,MEAN_MOTION_DOT,MEAN_MOTION_DDOT,TLE_LINE0,TLE_LINE1,TLE_LINE2,SEMIMAJOR_AXIS,PERIOD,APOGEE,PERIGEE,DECAYED
54199.0,STARLINK-5244,PAYLOAD,2023-04-02 19:46:17,15.08847207,0.0001375,53.2179,125.8315,89.1363,270.9787,-6.6124e-05,-1.34e-05,0.0,0 STARLINK-5244,1 54199U 22141AU  23092.82381635 -.00001340  00000-0 -66124-4 0  9993,2 54199  53.2179 125.8315 0001375  89.1363 270.9787 15.08847207 24185,6917.858,95.437,540.675,538.772,0.0
54199.0,STARLINK-5244,PAYLOAD,2023-04-03 13:15:32,15.08843501,0.0001428,53.218,122.5598,93.7884,266.3272,7.1225e-05,8.46e-06,0.0,0 STARLINK-5244,1 54199U 22141AU  23093.55245461  .00000846  00000-0  71225-4 0  9996,2 54199  53.2180 122.5598 0001428  93.7884 266.3272 15.08843501 24295,6917.87,95.437,540.723,538.747,0.0
54199.0,STARLINK-5244,PAYLOAD,2023-04-04 08:20:10,15.08840102,0.0001393,53.218,118.9903,99.8983,260.2166,-1.9779e-05,-6.03e-06,0.0,0 STARLINK-5244,1 54199U 22141AU  23094.34734044 -.00000603  00000-0 -19779-4 0  9993,2 54199  53.2180 118.9903 0001393  99.8983 260.2166 15.08840102 24640,6917.88,95.438,540.709,538.781,0.0
54199.0,STARLINK-5244,PAYLOAD,2023-04-04 13:06:19,15.08842039,0.0001418,53.2183,118.0969,103.1679,256.9471,4.0103e-06,-2.24e-06,0.0,0 STARLINK-5244,1 54199U 22141AU  23094.54605774 -.00000224  00000-0  40103-5 0  9996,2 54199  53.2183 118.0969 0001418 103.1679 256.9471 15.08842039 24445,6917.874,95.437,540.72,538.758,0.0
54199.0,STARLINK-5244,PAYLOAD,2023-04-05 08:10:57,15.08837424,0.0001481,53.2184,114.5312,110.2153,249.8999,-4.7117e-05,-1.038e-05,0.0,0 STARLINK-5244,1 54199U 22141AU  23095.34094334 -.00001038  00000-0 -47117-4 0  9995,2 54199  53.2184 114.5312 0001481 110.2153 249.8999 15.08837424 24566,6917.888,95.438,540.778,538.729,0.0
54199.0,STARLINK-5244,PAYLOAD,2023-04-05 17:43:16,15.08839381,0.0001425,53.2192,112.748,92.4471,267.6685,-5.8156e-05,-1.213e-05,0.0,0 STARLINK-5244,1 54199U 22141AU  23095.73838361 -.00001213  00000-0 -58156-4 0  9994,2 54199  53.2192 112.7480 0001425  92.4471 267.6685 15.08839381 24859,6917.882,95.438,540.733,538.761,0.0
54199.0,STARLINK-5244,PAYLOAD,2023-04-06 12:47:53,15.08844717,0.0001372,53.2179,109.1786,98.1186,261.9961,4.1792e-05,3.77e-06,0.0,0 STARLINK-5244,1 54199U 22141AU  23096.53325615  .00000377  00000-0  41792-4 0  9992,2 54199  53.2179 109.1786 0001372  98.1186 261.9961 15.08844717 24741,6917.866,95.437,540.68,538.782,0.0
54199.0,STARLINK-5244,PAYLOAD,2023-04-06 17:34:03,15.08830983,0.0001117,53.2186,108.2872,99.9873,260.1245,-5.0192e-05,-1.086e-05,0.0,0 STARLINK-5244,1 54199U 22141AU  23096.73198707 -.00001086  00000-0 -50192-4 0  9998,2 54199  53.2186 108.2872 0001117  99.9873 260.1245 15.08830983 24773,6917.908,95.438,540.546,539.0,0.0
54199.0,STARLINK-5244,PAYLOAD,2023-04-07 04:41:45,15.08832356,9.6e-05,53.2181,106.2052,99.7551,260.3549,-1.926e-05,-5.94e-06,0.0,0 STARLINK-5244,1 54199U 22141AU  23097.19566676 -.00000594  00000-0 -19260-4 0  9997,2 54199  53.2181 106.2052 0000960  99.7551 260.3549 15.08832356 25071,6917.904,95.438,540.433,539.105,0.0
54199.0,STARLINK-5244,PAYLOAD,2023-04-07 12:38:40,15.08841065,0.0001283,53.218,104.7179,92.8791,267.2348,4.4889e-05,4.27e-06,0.0,0 STARLINK-5244,1 54199U 22141AU  23097.52686019  .00000427  00000-0  44889-4 0  9996,2 54199  53.2180 104.7179 0001283  92.8791 267.2348 15.08841065 24891,6917.877,95.437,540.63,538.855,0.0
54199.0,STARLINK-5244,PAYLOAD,2023-04-07 17:24:50,15.08838039,0.0001362,53.2184,103.825,82.3595,277.7552,1.0402e-05,-1.22e-06,0.0,0 STARLINK-5244,1 54199U 22141AU  23097.72558390 -.00000122  00000-0  10402-4 0  9995,2 54199  53.2184 103.8250 0001362  82.3595 277.7552 15.08838039 25159,6917.886,95.438,540.694,538.809,0.0
54199.0,STARLINK-5244,PAYLOAD,2023-04-08 12:29:28,15.08841268,0.0001464,53.2193,100.2563,86.3338,273.7821,3.1672e-06,-2.38e-06,0.0,0 STARLINK-5244,1 54199U 22141AU  23098.52046307 -.00000238  00000-0  31672-5 0  9995,2 54199  53.2193 100.2563 0001464  86.3338 273.7821 15.08841268 25040,6917.877,95.437,540.754,538.729,0.0
54199.0,STARLINK-5244,PAYLOAD,2023-04-09 05:58:43,15.08832898,0.0001244,53.2176,96.9872,87.6232,272.4903,5.8288e-06,-1.95e-06,0.0,0 STARLINK-5244,1 54199U 22141AU  23099.24910947 -.00000195  00000-0  58288-5 0  9999,2 54199  53.2176  96.9872 0001244  87.6232 272.4903 15.08832898 25381,6917.902,95.438,540.628,538.907,0.0
54199.0,STARLINK-5244,PAYLOAD,2023-04-09 12:20:15,15.08840169,0.0001315,53.2177,95.7976,90.0812,270.0331,9.2141e-06,-1.41e-06,0.0,0 STARLINK-5244,1 54199U 22141AU  23099.51406535 -.00000141  00000-0  92141-5 0  9999,2 54199  53.2177  95.7976 0001315  90.0812 270.0331 15.08840169 25193,6917.88,95.438,540.655,538.835,0.0
54199.0,STARLINK-5244,PAYLOAD,2023-04-09 17:06:24,15.08840757,0.0001344,53.2179,94.9063,87.8215,272.2931,1.4752e-05,-5.3e-07,0.0,0 STARLINK-5244,1 54199U 22141AU  23099.71278492 -.00000053  00000-0  14752-4 0  9993,2 54199  53.2179  94.9063 0001344  87.8215 272.2931 15.08840757 25458,6917.878,95.438,540.673,538.813,0.0
54199.0,STARLINK-5244,PAYLOAD,2023-04-10 10:35:38,15.08857268,0.000142,53.2179,91.6357,109.1665,250.9481,-8.7024e-06,-4.27e-06,0.0,0 STARLINK-5244,1 54199U 22141AU  23100.44141352 -.00000427  00000-0 -87024-5 0  9999,2 54199  53.2179  91.6357 0001420 109.1665 250.9481 15.08857268 25560,6917.828,95.436,540.675,538.71,0.0
54199.0,STARLINK-5244,PAYLOAD,2023-04-10 16:57:12,15.0883522,0.0001516,53.2185,90.4472,73.8267,286.2892,-3.3604e-05,-8.23e-06,0.0,0 STARLINK-5244,1 54199U 22141AU  23100.70638915 -.00000823  00000-0 -33604-4 0  9998,2 54199  53.2185  90.4472 0001516  73.8267 286.2892 15.08835220 25600,6917.895,95.438,540.809,538.711,0.0
54199.0,STARLINK-5244,PAYLOAD,2023-04-11 10:26:25,15.08843956,0.0001447,53.2178,87.1753,85.7075,274.4082,2.6662e-05,1.36e-06,0.0,0 STARLINK-5244,1 54199U 22141AU  23101.43502219  .00000136  00000-0  26662-4 0  9997,2 54199  53.2178  87.1753 0001447  85.7075 274.4082 15.08843956 25716,6917.868,95.437,540.734,538.732,0.0
54199.0,STARLINK-5244,PAYLOAD,2023-04-12 05:31:04,15.08837434,0.0001289,53.2182,83.6084,86.6531,273.4609,-4.526e-05,-1.008e-05,0.0,0 STARLINK-5244,1 54199U 22141AU  23102.22990936 -.00001008  00000-0 -45260-4 0  9998,2 54199  53.2182  83.6084 0001289  86.6531 273.4609 15.08837434 25831,6917.888,95.438,540.645,538.862,0.0
54199.0,STARLINK-5244,PAYLOAD,2023-04-12 08:41:50,15.08841764,0.0001383,53.219,83.0111,89.5036,270.6115,-5.6292e-05,-1.184e-05,0.0,0 STARLINK-5244,1 54199U 22141AU  23102.36238714 -.00001184  00000-0 -56292-4 0  9994,2 54199  53.2190  83.0111 0001383  89.5036 270.6115 15.08841764 25621,6917.875,95.437,540.697,538.783,0.0
54199.0,STARLINK-5244,PAYLOAD,2023-04-13 08:32:37,15.088426,0.0001337,53.2187,78.5509,85.201,274.9135,2.2976e-05,7.8e-07,0.0,0 STARLINK-5244,1 54199U 22141AU  23103.35598499  .00000078  00000-0  22976-4 0  9994,2 54199  53.2187  78.5509 0001337  85.2010 274.9135 15.08842600 25776,6917.872,95.437,540.662,538.813,0.0
54199.0,STARLINK-5244,PAYLOAD,2023-04-14 06:48:01,15.08834794,0.0001328,53.2191,74.3894,87.438,272.6764,-2.2907e-05,-6.52e-06,0.0,0 STARLINK-5244,1 54199U 22141AU  23104.28335504 -.00000652  00000-0 -22907-4 0  9997,2 54199  53.2191  74.3894 0001328  87.4380 272.6764 15.08834794 25910,6917.896,95.438,540.68,538.843,0.0
54199.0,STARLINK-5244,PAYLOAD,2023-04-15 05:03:25,15.08843287,0.0001326,53.2197,70.2271,90.5331,269.5813,1.5459e-06,-2.63e-06,0.0,0 STARLINK-5244,1 54199U 22141AU  23105.21071153 -.00000263  00000-0  15459-5 0  9990,2 54199  53.2197  70.2271 0001326  90.5331 269.5813 15.08843287 26287,6917.87,95.437,540.653,538.818,0.0
54199.0,STARLINK-5244,PAYLOAD,2023-04-15 08:14:11,15.08848489,0.0001265,53.2188,69.6308,88.2121,271.9016,3.3968e-05,2.53e-06,0.0,0 STARLINK-5244,1 54199U 22141AU  23105.34318650  .00000253  00000-0  33968-4 0  9992,2 54199  53.2188  69.6308 0001265  88.2121 271.9016 15.08848489 26071,6917.854,95.437,540.595,538.844,0.0
54199.0,STARLINK-5244,PAYLOAD,2023-04-16 06:29:36,15.0883764,0.0001205,53.2186,65.4672,89.7062,270.4068,5.6743e-06,-1.98e-06,0.0,0 STARLINK-5244,1 54199U 22141AU  23106.27055561 -.00000198  00000-0  56743-5 0  9990,2 54199  53.2186  65.4672 0001205  89.7062 270.4068 15.08837640 26215,6917.888,95.438,540.586,538.919,0.0
54199.0,STARLINK-5244,PAYLOAD,2023-04-16 20:48:06,15.08812826,0.0001075,53.2196,62.7915,110.2875,249.8233,-9.3758e-05,-1.778e-05,0.0,0 STARLINK-5244,1 54199U 22141AU  23106.86673785 -.00001778  00000-0 -93758-4 0  9991,2 54199  53.2196  62.7915 0001075 110.2875 249.8233 15.08812826 26531,6917.963,95.439,540.572,539.085,0.0
54199.0,STARLINK-5244,PAYLOAD,2023-04-17 04:45:01,15.0882527,0.0001178,53.2194,61.3045,101.7687,258.3438,-0.00015638,-2.775e-05,0.0,0 STARLINK-5244,1 54199U 22141AU  23107.19793901 -.00002775  00000-0 -15638-3 0  9999,2 54199  53.2194  61.3045 0001178 101.7687 258.3438 15.08825270 26582,6917.925,95.438,540.605,538.975,0.0
54199.0,STARLINK-5244,PAYLOAD,2023-04-17 06:20:25,15.08825873,0.0001139,53.2189,61.0068,103.1815,256.9304,-0.00014666,-2.62e-05,0.0,0 STARLINK-5244,1 54199U 22141AU  23107.26417872 -.00002620  00000-0 -14666-3 0  9996,2 54199  53.2189  61.0068 0001139 103.1815 256.9304 15.08825873 26365,6917.924,95.438,540.577,539.001,0.0
54199.0,STARLINK-5244,PAYLOAD,2023-04-18 06:11:08,15.08863221,9.92e-05,53.2194,56.5486,97.4306,262.6799,0.0002346,3.45e-05,0.0,0 STARLINK-5244,1 54199U 22141AU  23108.25774221  .00003450  00000-0  23460-3 0  9992,2 54199  53.2194  56.5486 0000992  97.4306 262.6799 15.08863221 26518,6917.809,95.436,540.361,538.988,0.0
54199.0,STARLINK-5244,PAYLOAD,2023-04-19 02:51:11,15.08837278,0.0001033,53.2204,52.6811,97.8251,262.2859,0.00011878,1.603e-05,0.0,0 STARLINK-5244,1 54199U 22141AU  23109.11888532  .00001603  00000-0  11878-3 0  9997,2 54199  53.2204  52.6811 0001033  97.8251 262.2859 15.08837278 26874,6917.889,95.438,540.468,539.039,0.0
